*******************************************************************************
JPL/HORIZONS               129 Antigone (A873 CA)          2020-Jun-20 08:18:13
Rec #:     129 (+COV) Soln.date: 2020-May-20_00:59:14   # obs: 3022 (1903-2020)
 
IAU76/J2000 helio. ecliptic osc. elements (au, days, deg., period=Julian yrs):
 
  EPOCH=  2452694.5 ! 2003-Feb-24.00 (TDB)         Residual RMS= .30916
   EC= .2139779716438171   QR= 2.252563266802957   TP= 2453555.8671435318
   OM= 136.4743695905395   W=  108.4003893482002   IN= 12.22632569737399
   A= 2.865776257586278    MA= 185.0036642008228   ADIST= 3.478989248369598
   PER= 4.85145            N= .20316114            ANGMOM= .028446271
   DAN= 2.93264            DDN= 2.56155            L= 245.2721026
   B= 11.592324            MOID= 1.27424002        TP= 2005-Jul-04.3671435318
 
Asteroid physical parameters (km, seconds, rotational period in hours):
   GM= n.a.                RAD= 56.5               ROTPER= 4.9572
   H= 7.2                  G= .330                 B-V= .717
                           ALBEDO= .151            STYP= X
 
ASTEROID comments: 
1: soln ref.= JPL#100, OCC=0
2: source=ORB
*******************************************************************************
 
 
*******************************************************************************
Ephemeris / WWW_USER Sat Jun 20 08:18:13 2020 Pasadena, USA      / Horizons
*******************************************************************************
Target body name: 129 Antigone (A873 CA)          {source: JPL#100}
Center body name: Solar System Barycenter (0)     {source: DE431}
Center-site name: BODY CENTER
*******************************************************************************
Start time      : A.D. 1969-Jun-28 00:00:00.0000 TDB
Stop  time      : A.D. 2071-May-04 00:00:00.0000 TDB
Step-size       : 7200 minutes
*******************************************************************************
Center geodetic : 0.00000000,0.00000000,0.0000000 {E-lon(deg),Lat(deg),Alt(km)}
Center cylindric: 0.00000000,0.00000000,0.0000000 {E-lon(deg),Dxy(km),Dz(km)}
Center radii    : (undefined)                                                  
Small perturbers: Yes                             {source: SB431-N16}
Output units    : AU-D
Output type     : GEOMETRIC cartesian states
Output format   : 2 (position and velocity)
Reference frame : Ecliptic of J2000.0
*******************************************************************************
Initial IAU76/J2000 heliocentric ecliptic osculating elements (au, days, deg.):
  EPOCH=  2452694.5 ! 2003-Feb-24.00 (TDB)         Residual RMS= .30916        
   EC= .2139779716438171   QR= 2.252563266802957   TP= 2453555.8671435318      
   OM= 136.4743695905395   W=  108.4003893482002   IN= 12.22632569737399       
  Equivalent ICRF heliocentric equatorial cartesian coordinates (au, au/d):
   X= 1.241365381377172E+00  Y= 3.185528320422041E+00  Z= 6.354142746713980E-01
  VX=-7.593607285069797E-03 VY= 2.460835662589794E-03 VZ= 1.793226605249067E-03
Asteroid physical parameters (km, seconds, rotational period in hours):        
   GM= n.a.                RAD= 56.5               ROTPER= 4.9572              
   H= 7.2                  G= .330                 B-V= .717                   
                           ALBEDO= .151            STYP= X                     
*******************************************************************************
            JDTDB,            Calendar Date (TDB),        delta-T,                      X,                      Y,                      Z,                     VX,                     VY,                     VZ,
******************************************************************************************************************************************************************************************************************
$$SOE
2460980.500000000, A.D. 2025-Nov-01 00:00:00.0000,      69.182538,  2.418592289100819E+00, -1.217113853638064E+00, -1.796267893818628E-01,  6.451247084399632E-03,  8.259938154860442E-03, -2.264480325840981E-03,
2460985.500000000, A.D. 2025-Nov-06 00:00:00.0000,      69.182604,  2.450400299707401E+00, -1.175593414882182E+00, -1.909153765106766E-01,  6.271932567592821E-03,  8.347550111416926E-03, -2.250843900932414E-03,
2460990.500000000, A.D. 2025-Nov-11 00:00:00.0000,      69.182681,  2.481311441836330E+00, -1.133645175371033E+00, -2.021341409357503E-01,  6.092514159192223E-03,  8.431068390985020E-03, -2.236554988278460E-03,
2460995.500000000, A.D. 2025-Nov-16 00:00:00.0000,      69.182770,  2.511325409856922E+00, -1.091289453737808E+00, -2.132798760124027E-01,  5.913076761108713E-03,  8.510553037183729E-03, -2.221635832137610E-03,
2461000.500000000, A.D. 2025-Nov-21 00:00:00.0000,      69.182869,  2.540442313291477E+00, -1.048546266385789E+00, -2.243494852081476E-01,  5.733701548440725E-03,  8.586064872290534E-03, -2.206108231456654E-03,
2461005.500000000, A.D. 2025-Nov-26 00:00:00.0000,      69.182976,  2.568662658421224E+00, -1.005435323978117E+00, -2.353399798527052E-01,  5.554466065997887E-03,  8.657665345584377E-03, -2.189993530827401E-03,
2461010.500000000, A.D. 2025-Dec-01 00:00:00.0000,      69.183091,  2.595987330381762E+00, -9.619760286627188E-01, -2.462484768476291E-01,  5.375444327376761E-03,  8.725416390885494E-03, -2.173312613353860E-03,
2461015.500000000, A.D. 2025-Dec-06 00:00:00.0000,      69.183211,  2.622417575757703E+00, -9.181874719866937E-01, -2.570721963447024E-01,  5.196706915393525E-03,  8.789380293266627E-03, -2.156085895259180E-03,
2461020.500000000, A.D. 2025-Dec-11 00:00:00.0000,      69.183337,  2.647954985681475E+00, -8.740884334539074E-01, -2.678084594013244E-01,  5.018321083286527E-03,  8.849619565040689E-03, -2.138333322050800E-03,
2461025.500000000, A.D. 2025-Dec-16 00:00:00.0000,      69.183471,  2.672601479439943E+00, -8.296973796800866E-01, -2.784546856203595E-01,  4.840350856629445E-03,  8.906196830685964E-03, -2.120074366121419E-03,
2461030.500000000, A.D. 2025-Dec-21 00:00:00.0000,      69.183609,  2.696359288592003E+00, -7.850324641021081E-01, -2.890083907813787E-01,  4.662857135756288E-03,  8.959174720155486E-03, -2.101328025691857E-03,
2461035.500000000, A.D. 2025-Dec-26 00:00:00.0000,      69.183750,  2.719230941598764E+00, -7.401115272007446E-01, -2.994671844697637E-01,  4.485897798291622E-03,  9.008615770119608E-03, -2.082112824993860E-03,
2461040.500000000, A.D. 2025-Dec-31 00:00:00.0000,      69.183892,  2.741219248965773E+00, -6.949520971981269E-01, -3.098287677096036E-01,  4.309527801380802E-03,  9.054582332780040E-03, -2.062446815586638E-03,
2461045.500000000, A.D. 2026-Jan-05 00:00:00.0000,      69.184034,  2.762327288894938E+00, -6.495713911929175E-01, -3.200909306057927E-01,  4.133799283288089E-03,  9.097136491914027E-03, -2.042347578705740E-03,
2461050.500000000, A.D. 2026-Jan-10 00:00:00.0000,      69.184175,  2.782558393442287E+00, -6.039863166979126E-01, -3.302515500002593E-01,  3.958761664093402E-03,  9.136339985799708E-03, -2.021832228550809E-03,
2461055.500000000, A.D. 2026-Jan-15 00:00:00.0000,      69.184317,  2.801916135176488E+00, -5.582134735465603E-01, -3.403085871468000E-01,  3.784461745262141E-03,  9.172254136663484E-03, -2.000917416426579E-03,
2461060.500000000, A.D. 2026-Jan-20 00:00:00.0000,      69.184458,  2.820404314331978E+00, -5.122691561367085E-01, -3.502600854085869E-01,  3.610943807891680E-03,  9.204939786277630E-03, -1.979619335658174E-03,
2461065.500000000, A.D. 2026-Jan-25 00:00:00.0000,      69.184594,  2.838026946449635E+00, -4.661693559817958E-01, -3.601041679820304E-01,  3.438249709446370E-03,  9.234457237319103E-03, -1.957953727205993E-03,
2461070.500000000, A.D. 2026-Jan-30 00:00:00.0000,      69.184725,  2.854788250496905E+00, -4.199297645416848E-01, -3.698390356503080E-01,  3.266418978766456E-03,  9.260866200084742E-03, -1.935935885903690E-03,
2461075.500000000, A.D. 2026-Feb-04 00:00:00.0000,      69.184848,  2.870692637458058E+00, -3.735657763073539E-01, -3.794629645694544E-01,  3.095488909049612E-03,  9.284225744177079E-03, -1.913580667226644E-03,
2461080.500000000, A.D. 2026-Feb-09 00:00:00.0000,      69.184966,  2.885744699383476E+00, -3.270924921153366E-01, -3.889743040893718E-01,  2.925494648412352E-03,  9.304594254889269E-03, -1.890902494469242E-03,
2461085.500000000, A.D. 2026-Feb-14 00:00:00.0000,      69.185078,  2.899949198884999E+00, -2.805247226685745E-01, -3.983714746114577E-01,  2.756469287742038E-03,  9.322029394266643E-03, -1.867915366194841E-03,
2461090.500000000, A.D. 2026-Feb-19 00:00:00.0000,      69.185182,  2.913311059064065E+00, -2.338769922402195E-01, -4.076529654840174E-01,  2.588443946028970E-03,  9.336588066854100E-03, -1.844632863899404E-03,
2461095.500000000, A.D. 2026-Feb-24 00:00:00.0000,      69.185277,  2.925835353861297E+00, -1.871635425375348E-01, -4.168173329366131E-01,  2.421447853693102E-03,  9.348326389808851E-03, -1.821068159935995E-03,
2461100.500000000, A.D. 2026-Mar-01 00:00:00.0000,      69.185360,  2.937527298818008E+00, -1.403983367056913E-01, -4.258631980547825E-01,  2.255508433966692E-03,  9.357299666738986E-03, -1.797234025731362E-03,
2461105.500000000, A.D. 2026-Mar-06 00:00:00.0000,      69.185432,  2.948392242238698E+00, -9.359506345367173E-02, -4.347892447963717E-01,  2.090651381827533E-03,  9.363562365027245E-03, -1.773142840193402E-03,
2461110.500000000, A.D. 2026-Mar-11 00:00:00.0000,      69.185494,  2.958435656741784E+00, -4.676714128472924E-02, -4.435942180502079E-01,  1.926900740410470E-03,  9.367168096676747E-03, -1.748806598239033E-03,
2461115.500000000, A.D. 2026-Mar-16 00:00:00.0000,      69.185546,  2.967663131186876E+00,  7.227718577267322E-05, -4.522769217377644E-01,  1.764278975268859E-03,  9.368169602447482E-03, -1.724236919469798E-03,
